NORAD_CAT_ID,OBJECT_NAME,OBJECT_TYPE,EPOCH,MEAN_MOTION,ECCENTRICITY,INCLINATION,RA_OF_ASC_NODE,ARG_OF_PERICENTER,MEAN_ANOMALY,BSTAR,MEAN_MOTION_DOT,MEAN_MOTION_DDOT,TLE_LINE0,TLE_LINE1,TLE_LINE2,SEMIMAJOR_AXIS,PERIOD,APOGEE,PERIGEE,DECAYED
53709.0,STARLINK-4685,PAYLOAD,2024-05-03 17:43:21,15.08826742,0.0001846,53.217,38.7906,84.8688,275.2515,6.4152e-05,7.33e-06,0.0,0 STARLINK-4685,1 53709U 22107K   24124.73844593  .00000733  00000-0  64152-4 0  9997,2 53709  53.2170  38.7906 0001846  84.8688 275.2515 15.08826742 92144,6917.921,95.438,541.063,538.509,0.0
53709.0,STARLINK-4685,PAYLOAD,2024-05-03 22:29:31,15.08820039,0.0001091,53.2169,37.8985,84.7772,275.3345,-0.00012404,-2.26e-05,0.0,0 STARLINK-4685,1 53709U 22107K   24124.93716776 -.00002260  00000-0 -12404-3 0  9991,2 53709  53.2169  37.8985 0001091  84.7772 275.3345 15.08820039 92611,6917.941,95.439,540.561,539.052,0.0
53709.0,STARLINK-4685,PAYLOAD,2024-05-04 17:34:09,15.08845915,0.0001168,53.217,34.33,82.4849,277.6276,0.0013529,0.00021312,0.0,0 STARLINK-4685,1 53709U 22107K   24125.73205415  .00021312  00000-0  13529-2 0  9998,2 53709  53.2170  34.3300 0001168  82.4849 277.6276 15.08845915 92293,6917.862,95.437,540.535,538.919,0.0
53709.0,STARLINK-4685,PAYLOAD,2024-05-05 03:06:27,15.08866901,0.0001191,53.2175,32.5462,79.9502,280.1624,0.0017422,0.00027568,0.0,0 STARLINK-4685,1 53709U 22107K   24126.12948983  .00027568  00000-0  17422-2 0  9991,2 53709  53.2175  32.5462 0001191  79.9502 280.1624 15.08866901 92799,6917.798,95.436,540.487,538.839,0.0
53709.0,STARLINK-4685,PAYLOAD,2024-05-05 22:11:05,15.08861544,0.0001218,53.2176,28.9782,79.3607,280.7523,0.00097671,0.000153,0.0,0 STARLINK-4685,1 53709U 22107K   24126.92436407  .00015300  00000-0  97671-3 0  9998,2 53709  53.2176  28.9782 0001218  79.3607 280.7523 15.08861544 92910,6917.815,95.436,540.522,538.837,0.0
53709.0,STARLINK-4685,PAYLOAD,2024-05-06 02:57:14,15.0887645,0.0001231,53.2174,28.0842,88.8185,271.2948,0.0011754,0.00018487,0.0,0 STARLINK-4685,1 53709U 22107K   24127.12307890  .00018487  00000-0  11754-2 0  9990,2 53709  53.2174  28.0842 0001231  88.8185 271.2948 15.08876450 92500,6917.769,95.435,540.486,538.782,0.0
53709.0,STARLINK-4685,PAYLOAD,2024-05-06 10:54:09,15.08863437,0.0001583,53.218,26.5986,91.4724,268.6449,0.00077906,0.0001214,0.0,0 STARLINK-4685,1 53709U 22107K   24127.45427793  .00012140  00000-0  77906-3 0  9993,2 53709  53.2180  26.5986 0001583  91.4724 268.6449 15.08863437 92550,6917.809,95.436,540.769,538.579,0.0
53709.0,STARLINK-4685,PAYLOAD,2024-05-06 20:26:28,15.08859192,0.0001768,53.2181,24.8142,100.8016,259.3176,0.00085418,0.0001334,0.0,0 STARLINK-4685,1 53709U 22107K   24127.85171731  .00013340  00000-0  85418-3 0  9995,2 53709  53.2181  24.8142 0001768 100.8016 259.3176 15.08859192 92614,6917.822,95.436,540.91,538.464,0.0
53709.0,STARLINK-4685,PAYLOAD,2024-05-06 22:01:51,15.08855185,0.0001569,53.218,24.5168,104.9255,255.1911,0.00067522,0.00010479,0.0,0 STARLINK-4685,1 53709U 22107K   24127.91795705  .00010479  00000-0  67522-3 0  9991,2 53709  53.2180  24.5168 0001569 104.9255 255.1911 15.08855185 93066,6917.834,95.437,540.784,538.614,0.0
53709.0,STARLINK-4685,PAYLOAD,2024-05-07 02:48:00,15.08857049,0.0001505,53.2187,23.6242,105.8745,254.2413,0.00040138,6.109e-05,0.0,0 STARLINK-4685,1 53709U 22107K   24128.11667470  .00006109  00000-0  40138-3 0  9990,2 53709  53.2187  23.6242 0001505 105.8745 254.2413 15.08857049 92652,6917.828,95.436,540.734,538.652,0.0
53709.0,STARLINK-4685,PAYLOAD,2024-05-07 20:17:16,15.08827415,0.0001079,53.219,20.3547,91.6521,268.4595,-4.8236e-05,-1.055e-05,0.0,0 STARLINK-4685,1 53709U 22107K   24128.84532631 -.00001055  00000-0 -48236-4 0  9995,2 53709  53.2190  20.3547 0001079  91.6521 268.4595 15.08827415 92762,6917.919,95.438,540.53,539.037,0.0
53709.0,STARLINK-4685,PAYLOAD,2024-05-07 21:52:39,15.0882846,0.0001241,53.2186,20.0574,95.2226,264.8908,1.1975e-05,-9.7e-07,0.0,0 STARLINK-4685,1 53709U 22107K   24128.91156722 -.00000097  00000-0  11975-4 0  9990,2 53709  53.2186  20.0574 0001241  95.2226 264.8908 15.08828460 93217,6917.916,95.438,540.639,538.922,0.0
53709.0,STARLINK-4685,PAYLOAD,2024-05-07 23:28:02,15.08829214,0.0001262,53.2183,19.7596,93.6142,266.4994,7.6183e-05,9.24e-06,0.0,0 STARLINK-4685,1 53709U 22107K   24128.97780812  .00000924  00000-0  76183-4 0  9999,2 53709  53.2183  19.7596 0001262  93.6142 266.4994 15.08829214 93227,6917.913,95.438,540.651,538.905,0.0
53709.0,STARLINK-4685,PAYLOAD,2024-05-08 21:43:27,15.08840158,0.0001282,53.2182,15.5964,85.9814,274.1324,0.00058397,9.018e-05,0.0,0 STARLINK-4685,1 53709U 22107K   24129.90517435  .00009018  00000-0  58397-3 0  9991,2 53709  53.2182  15.5964 0001282  85.9814 274.1324 15.08840158 93369,6917.88,95.438,540.632,538.858,0.0
53709.0,STARLINK-4685,PAYLOAD,2024-05-08 23:18:50,15.08844251,0.000132,53.2182,15.2984,94.2346,265.8797,0.00068927,0.000107,0.0,0 STARLINK-4685,1 53709U 22107K   24129.97141332  .00010700  00000-0  68927-3 0  9997,2 53709  53.2182  15.2984 0001320  94.2346 265.8797 15.08844251 92935,6917.867,95.437,540.646,538.819,0.0
53709.0,STARLINK-4685,PAYLOAD,2024-05-09 08:51:08,15.08851491,0.0001311,53.2183,13.5155,88.2724,271.8418,0.00067605,0.00010491,0.0,0 STARLINK-4685,1 53709U 22107K   24130.36885180  .00010491  00000-0  67605-3 0  9997,2 53709  53.2183  13.5155 0001311  88.2724 271.8418 15.08851491 93437,6917.845,95.437,540.617,538.803,0.0
53709.0,STARLINK-4685,PAYLOAD,2024-05-09 19:58:50,15.08852798,0.0001498,53.2191,11.4391,107.5884,252.5272,0.0005218,8.029e-05,0.0,0 STARLINK-4685,1 53709U 22107K   24130.83253074  .00008029  00000-0  52180-3 0  9996,2 53709  53.2191  11.4391 0001498 107.5884 252.5272 15.08852798 93067,6917.841,95.437,540.743,538.67,0.0
53709.0,STARLINK-4685,PAYLOAD,2024-05-09 21:34:13,15.08853555,0.0001478,53.2189,11.1405,105.8106,254.3049,0.0005124,7.879e-05,0.0,0 STARLINK-4685,1 53709U 22107K   24130.89877009  .00007879  00000-0  51240-3 0  9990,2 53709  53.2189  11.1405 0001478 105.8106 254.3049 15.08853555 93517,6917.839,95.437,540.726,538.682,0.0
53709.0,STARLINK-4685,PAYLOAD,2024-05-10 08:41:55,15.08849864,0.0001518,53.2176,9.0514,78.3354,281.7809,0.0002885,4.308e-05,0.0,0 STARLINK-4685,1 53709U 22107K   24131.36244909  .00004308  00000-0  28850-3 0  9995,2 53709  53.2176   9.0514 0001518  78.3354 281.7809 15.08849864 93149,6917.85,95.437,540.765,538.665,0.0
53709.0,STARLINK-4685,PAYLOAD,2024-05-10 21:25:00,15.08853284,0.0001695,53.2186,6.6807,107.2629,252.8548,0.00046713,7.157e-05,0.0,0 STARLINK-4685,1 53709U 22107K   24131.89236886  .00007157  00000-0  46713-3 0  9991,2 53709  53.2186   6.6807 0001695 107.2629 252.8548 15.08853284 93668,6917.84,95.437,540.877,538.532,0.0
53709.0,STARLINK-4685,PAYLOAD,2024-05-11 08:32:41,15.08921807,0.0001484,53.2186,4.5981,101.3372,258.7787,0.0033944,0.00054272,0.0,0 STARLINK-4685,1 53709U 22107K   24132.35603365  .00054272  00000-0  33944-2 0  9994,2 53709  53.2186   4.5981 0001484 101.3372 258.7787 15.08921807 93290,6917.63,95.432,540.522,538.469,0.0
53709.0,STARLINK-4685,PAYLOAD,2024-05-11 21:15:46,15.08776724,0.0001669,53.2164,2.2152,48.8287,311.2848,-0.0062489,-0.00098217,0.0,0 STARLINK-4685,1 53709U 22107K   24132.88595055 -.00098217  00000-0 -62489-2 0  9993,2 53709  53.2164   2.2152 0001669  48.8287 311.2848 15.08776724 93374,6918.074,95.442,541.093,538.784,0.0
53709.0,STARLINK-4685,PAYLOAD,2024-05-12 08:23:31,15.08748354,9.06e-05,53.2167,0.1347,112.9303,247.1785,-0.00041851,-6.925e-05,0.0,0 STARLINK-4685,1 53709U 22107K   24133.34966466 -.00006925  00000-0 -41851-3 0  9999,2 53709  53.2167   0.1347 0000906 112.9303 247.1785 15.08748354 93448,6918.161,95.443,540.652,539.399,0.0
53709.0,STARLINK-4685,PAYLOAD,2024-05-12 21:06:37,15.08807938,9.74e-05,53.2178,357.7557,97.0153,263.0949,0.0023463,0.00037218,0.0,0 STARLINK-4685,1 53709U 22107K   24133.87960366  .00037218  00000-0  23463-2 0  9995,2 53709  53.2178 357.7557 0000974  97.0153 263.0949 15.08807938 93527,6917.978,95.44,540.517,539.17,0.0
53709.0,STARLINK-4685,PAYLOAD,2024-05-13 08:14:19,15.08852658,0.0001602,53.2187,355.6728,89.4031,270.7144,0.001514,0.00023898,0.0,0 STARLINK-4685,1 53709U 22107K   24134.34327999  .00023898  00000-0  15140-2 0  9999,2 53709  53.2187 355.6728 0001602  89.4031 270.7144 15.08852658 94031,6917.842,95.437,540.815,538.598,0.0
53709.0,STARLINK-4685,PAYLOAD,2024-05-13 20:57:23,15.088796,0.0001479,53.2158,353.2939,91.959,268.1571,0.0015007,0.00023702,0.0,0 STARLINK-4685,1 53709U 22107K   24134.87318960  .00023702  00000-0  15007-2 0  9991,2 53709  53.2158 353.2939 0001479  91.9590 268.1571 15.08879600 94117,6917.759,95.435,540.647,538.601,0.0
53709.0,STARLINK-4685,PAYLOAD,2024-05-14 08:05:05,15.0886028,0.0002525,53.2171,351.2114,93.1147,267.0134,0.0012586,0.00019811,0.0,0 STARLINK-4685,1 53709U 22107K   24135.33686589  .00019811  00000-0  12586-2 0  9993,2 53709  53.2171 351.2114 0002525  93.1147 267.0134 15.08860280 93745,6917.818,95.436,541.43,537.937,0.0
53709.0,STARLINK-4685,PAYLOAD,2024-05-14 14:26:37,15.08880327,0.000264,53.2152,350.0215,97.1723,262.9569,0.0021861,0.00034715,0.0,0 STARLINK-4685,1 53709U 22107K   24135.60182131  .00034715  00000-0  21861-2 0  9993,2 53709  53.2152 350.0215 0002640  97.1723 262.9569 15.08880327 94229,6917.757,95.435,541.448,537.796,0.0
53709.0,STARLINK-4685,PAYLOAD,2024-05-14 20:48:09,15.08872903,0.0001322,53.2155,348.8324,97.3082,262.8061,0.0015708,0.00024822,0.0,0 STARLINK-4685,1 53709U 22107K   24135.86677548  .00024822  00000-0  15708-2 0  9993,2 53709  53.2155 348.8324 0001322  97.3082 262.8061 15.08872903 94265,6917.78,95.435,540.559,538.73,0.0
53709.0,STARLINK-4685,PAYLOAD,2024-05-14 23:58:55,15.08874327,0.0001466,53.2168,348.2383,97.1425,262.9734,0.0017707,0.00028032,0.0,0 STARLINK-4685,1 53709U 22107K   24135.99925422  .00028032  00000-0  17707-2 0  9992,2 53709  53.2168 348.2383 0001466  97.1425 262.9734 15.08874327 94288,6917.775,95.435,540.655,538.626,0.0
